STARLINK-31409          
1 59299U 24056D   26068.49077642  .00000430  00000+0  25140-4 0  9994
2 59299  43.0002 224.9352 0001027 252.2132 107.8607 15.27577397111329
FLOCK 4G-3              
1 62639U 25009AG  26068.80174065  .00011494  00000+0  43389-3 0  9993
2 62639  97.4062 151.4068 0001320 293.2042  66.9058 15.27179310 63727
